[
  {
    "id": 448,
    "name": "Carolina Hess",
    "phone": "+1 (974) 538-2184",
    "street": "Porter Avenue",
    "city": "Deputy",
    "state": "North Dakota",
    "zip": 4094
  },
  {
    "id": 969,
    "name": "Drake Lucas",
    "phone": "+1 (994) 451-3935",
    "street": "Woodbine Street",
    "city": "Vowinckel",
    "state": "New Hampshire",
    "zip": 3939
  },
  {
    "id": 369,
    "name": "Strickland Hester",
    "phone": "+1 (914) 461-2249",
    "street": "Beverley Road",
    "city": "Conestoga",
    "state": "Kansas",
    "zip": 9138
  },
  {
    "id": 454,
    "name": "Acosta Reilly",
    "phone": "+1 (904) 403-2197",
    "street": "Bayard Street",
    "city": "Cetronia",
    "state": "Palau",
    "zip": 1011
  },
  {
    "id": 653,
    "name": "Lopez Parrish",
    "phone": "+1 (878) 427-2264",
    "street": "Woodhull Street",
    "city": "Ticonderoga",
    "state": "Maryland",
    "zip": 9797
  },
  {
    "id": 515,
    "name": "Rosie Rogers",
    "phone": "+1 (946) 596-2147",
    "street": "Rapelye Street",
    "city": "Sparkill",
    "state": "Northern Mariana Islands",
    "zip": 4399
  },
  {
    "id": 309,
    "name": "Lou Crane",
    "phone": "+1 (849) 492-2537",
    "street": "Eagle Street",
    "city": "Laurelton",
    "state": "Florida",
    "zip": 2725
  },
  {
    "id": 130,
    "name": "Maxine Carson",
    "phone": "+1 (954) 584-2499",
    "street": "Merit Court",
    "city": "Sardis",
    "state": "Wyoming",
    "zip": 6353
  },
  {
    "id": 630,
    "name": "Yolanda Bass",
    "phone": "+1 (840) 438-3191",
    "street": "Marconi Place",
    "city": "Harmon",
    "state": "Louisiana",
    "zip": 7144
  },
  {
    "id": 750,
    "name": "Marie Whitley",
    "phone": "+1 (991) 488-3239",
    "street": "Willow Street",
    "city": "Bergoo",
    "state": "Georgia",
    "zip": 543
  },
  {
    "id": 820,
    "name": "Bush Woodard",
    "phone": "+1 (977) 466-3337",
    "street": "Channel Avenue",
    "city": "Albany",
    "state": "Michigan",
    "zip": 476
  },
  {
    "id": 763,
    "name": "Cline Herman",
    "phone": "+1 (957) 534-2045",
    "street": "Seagate Terrace",
    "city": "Waiohinu",
    "state": "Wisconsin",
    "zip": 8470
  },
  {
    "id": 465,
    "name": "Annie Hunt",
    "phone": "+1 (902) 407-2007",
    "street": "George Street",
    "city": "Norfolk",
    "state": "New Mexico",
    "zip": 3764
  },
  {
    "id": 488,
    "name": "Susanne Farley",
    "phone": "+1 (922) 506-3758",
    "street": "Crescent Street",
    "city": "Marshall",
    "state": "Puerto Rico",
    "zip": 1127
  },
  {
    "id": 721,
    "name": "English Cantrell",
    "phone": "+1 (873) 473-2077",
    "street": "Monaco Place",
    "city": "Canby",
    "state": "American Samoa",
    "zip": 3879
  },
  {
    "id": 664,
    "name": "Odom West",
    "phone": "+1 (846) 437-2526",
    "street": "Randolph Street",
    "city": "Allison",
    "state": "Oklahoma",
    "zip": 7473
  },
  {
    "id": 415,
    "name": "Odessa Parks",
    "phone": "+1 (926) 468-2095",
    "street": "Strauss Street",
    "city": "Axis",
    "state": "Nevada",
    "zip": 7963
  },
  {
    "id": 564,
    "name": "Burton Allison",
    "phone": "+1 (983) 599-3146",
    "street": "Tompkins Place",
    "city": "Albrightsville",
    "state": "Alaska",
    "zip": 6736
  },
  {
    "id": 799,
    "name": "Whitaker Mccall",
    "phone": "+1 (903) 538-2452",
    "street": "Rutland Road",
    "city": "Graniteville",
    "state": "California",
    "zip": 6914
  },
  {
    "id": 723,
    "name": "Hughes Savage",
    "phone": "+1 (817) 511-2367",
    "street": "Troutman Street",
    "city": "Clarktown",
    "state": "Vermont",
    "zip": 6215
  },
  {
    "id": 857,
    "name": "Combs Gross",
    "phone": "+1 (856) 599-3688",
    "street": "Highland Place",
    "city": "Jacksonburg",
    "state": "Iowa",
    "zip": 6807
  },
  {
    "id": 260,
    "name": "Benton Marsh",
    "phone": "+1 (910) 409-2151",
    "street": "Etna Street",
    "city": "Roosevelt",
    "state": "Connecticut",
    "zip": 9796
  }
]
